[{"OBJECT_NAME":"OBJECT M","OBJECT_ID":"2025-155M","EPOCH":"2026-03-09T22:37:12.666144","MEAN_MOTION":15.33288683,"ECCENTRICITY":0.00088001,"INCLINATION":97.4429,"RA_OF_ASC_NODE":38.1052,"ARG_OF_PERICENTER":139.1253,"MEAN_ANOMALY":221.0651,"EPHEMERIS_TYPE":0,"CLASSIFICATION_TYPE":"U","NORAD_CAT_ID":64887,"ELEMENT_SET_NO":999,"REV_AT_EPOCH":6565,"BSTAR":0.00087834095,"MEAN_MOTION_DOT":0.00028279,"MEAN_MOTION_DDOT":0},{"OBJECT_NAME":"STARLINK-34797","OBJECT_ID":"2025-190N","EPOCH":"2026-03-09T13:20:57.311232","MEAN_MOTION":15.30177206,"ECCENTRICITY":0.0001077,"INCLINATION":53.1581,"RA_OF_ASC_NODE":168.8777,"ARG_OF_PERICENTER":81.7287,"MEAN_ANOMALY":278.3835,"EPHEMERIS_TYPE":0,"CLASSIFICATION_TYPE":"U","NORAD_CAT_ID":65363,"ELEMENT_SET_NO":999,"REV_AT_EPOCH":2973,"BSTAR":0.00093574,"MEAN_MOTION_DOT":0.00027437,"MEAN_MOTION_DDOT":0}]
